[ {"OBJECT_NAME": "SKYSAT-C12", "NORAD_CAT_ID": 43797, "MEAN_MOTION": 15.45770367, "ECCENTRICITY": 0.0005874, "INCLINATION": 96.9381, "RA_OF_ASC_NODE": 100.1924, "ARG_OF_PERICENTER": 126.9428, "MEAN_ANOMALY": 233.2361, "BSTAR": 0.00040636000000000003, "EPOCH": "2026-03-13T23:11:55"}, {"OBJECT_NAME": "SKYSAT-C13", "NORAD_CAT_ID": 43802, "MEAN_MOTION": 15.77539348, "ECCENTRICITY": 0.0004556, "INCLINATION": 96.9399, "RA_OF_ASC_NODE": 120.5628, "ARG_OF_PERICENTER": 185.5887, "MEAN_ANOMALY": 174.533, "BSTAR": 0.0006055899999999999, "EPOCH": "2026-03-13T21:59:14"}, {"OBJECT_NAME": "SKYSAT-A", "NORAD_CAT_ID": 39418, "MEAN_MOTION": 15.12387974, "ECCENTRICITY": 0.0019985, "INCLINATION": 97.395, "RA_OF_ASC_NODE": 125.2838, "ARG_OF_PERICENTER": 284.9639, "MEAN_ANOMALY": 74.938, "BSTAR": 0.00021779000000000001, "EPOCH": "2026-03-13T20:52:44"}, {"OBJECT_NAME": "SKYSAT-B", "NORAD_CAT_ID": 40072, "MEAN_MOTION": 14.8774521, "ECCENTRICITY": 0.000457, "INCLINATION": 98.3728, "RA_OF_ASC_NODE": 26.3696, "ARG_OF_PERICENTER": 217.1835, "MEAN_ANOMALY": 142.9064, "BSTAR": 0.00023938, "EPOCH": "2026-03-13T18:21:32"}, {"OBJECT_NAME": "SKYSAT-C1", "NORAD_CAT_ID": 41601, "MEAN_MOTION": 15.34599505, "ECCENTRICITY": 0.0003252, "INCLINATION": 96.9701, "RA_OF_ASC_NODE": 109.504, "ARG_OF_PERICENTER": 45.2329, "MEAN_ANOMALY": 314.9179, "BSTAR": 0.00033023000000000004, "EPOCH": "2026-03-13T13:09:19"}, {"OBJECT_NAME": "PLEIADES NEO 3", "NORAD_CAT_ID": 48268, "MEAN_MOTION": 14.81671937, "ECCENTRICITY": 0.000128, "INCLINATION": 97.893, "RA_OF_ASC_NODE": 149.098, "ARG_OF_PERICENTER": 94.2351, "MEAN_ANOMALY": 265.9009, "BSTAR": 2.3185000000000002e-05, "EPOCH": "2026-03-13T23:09:22"}, {"OBJECT_NAME": "PLEIADES NEO 4", "NORAD_CAT_ID": 49070, "MEAN_MOTION": 14.81671436, "ECCENTRICITY": 0.0001336, "INCLINATION": 97.893, "RA_OF_ASC_NODE": 149.0607, "ARG_OF_PERICENTER": 92.4826, "MEAN_ANOMALY": 267.654, "BSTAR": -7.0122e-05, "EPOCH": "2026-03-13T22:20:43"}, {"OBJECT_NAME": "PLEIADES 1B", "NORAD_CAT_ID": 39019, "MEAN_MOTION": 14.58530816, "ECCENTRICITY": 0.0001594, "INCLINATION": 98.2006, "RA_OF_ASC_NODE": 149.2705, "ARG_OF_PERICENTER": 84.011, "MEAN_ANOMALY": 276.127, "BSTAR": 7.3644e-05, "EPOCH": "2026-03-13T22:17:39"}, {"OBJECT_NAME": "PLEIADES 1A", "NORAD_CAT_ID": 38012, "MEAN_MOTION": 14.58543149, "ECCENTRICITY": 0.0001693, "INCLINATION": 98.2035, "RA_OF_ASC_NODE": 149.3549, "ARG_OF_PERICENTER": 87.1605, "MEAN_ANOMALY": 85.9887, "BSTAR": 3.6172e-05, "EPOCH": "2026-03-13T23:54:34"}, {"OBJECT_NAME": "PLEIADES YEARLING", "NORAD_CAT_ID": 56207, "MEAN_MOTION": 15.36797276, "ECCENTRICITY": 0.0012954, "INCLINATION": 97.388, "RA_OF_ASC_NODE": 256.6744, "ARG_OF_PERICENTER": 51.7533, "MEAN_ANOMALY": 308.4875, "BSTAR": 0.0010478, "EPOCH": "2023-12-28T09:58:50"}, {"OBJECT_NAME": "CSO-3", "NORAD_CAT_ID": 63156, "MEAN_MOTION": 14.34022377, "ECCENTRICITY": 0.0001932, "INCLINATION": 98.606, "RA_OF_ASC_NODE": 14.3262, "ARG_OF_PERICENTER": 17.427, "MEAN_ANOMALY": 342.6981, "BSTAR": 0.00016071, "EPOCH": "2025-03-13T22:37:36"}]